ONEWEB-0558             
1 56059U 23043P   24190.01585751 -.00000332  00000+0 -83456-3 0  9993
2 56059  87.9275  25.1551 0001778  71.9479 288.1849 13.21826246 65460
ONEWEB-0559             
1 56060U 23043Q   24189.55066710  .00000009  00000+0 -98158-5 0  9998
2 56060  87.9275  25.2456 0002327  77.2839 282.8555 13.21826053 64502
ONEWEB-0566             
1 56061U 23043R   24189.62004620  .00000121  00000+0  26129-3 0  9990
2 56061  87.9274  25.2322 0001947  66.0982 294.0355 13.21828071 65401
ONEWEB-0574             
1 56063U 23043T   24189.61372738 -.00000141  00000+0 -37270-3 0  9992
2 56063  87.9271  25.2277 0001682  85.6746 274.4580 13.21827742 65440
ONEWEB-0576             
1 56065U 23043V   24190.00996731  .00000052  00000+0  10233-3 0  9993
2 56065  87.9098   9.9533 0001827 103.6566 256.4768 13.16592602 66554
